[{"OBJECT_NAME":"STARLINK-5657","OBJECT_ID":"2023-013M","EPOCH":"2026-03-09T12:42:54.429696","MEAN_MOTION":15.02533716,"ECCENTRICITY":0.0001328,"INCLINATION":43.0046,"RA_OF_ASC_NODE":301.3502,"ARG_OF_PERICENTER":265.2416,"MEAN_ANOMALY":94.8275,"EPHEMERIS_TYPE":0,"CLASSIFICATION_TYPE":"U","NORAD_CAT_ID":55342,"ELEMENT_SET_NO":999,"REV_AT_EPOCH":17168,"BSTAR":6.580205e-6,"MEAN_MOTION_DOT":-1.15e-6,"MEAN_MOTION_DDOT":0},{"OBJECT_NAME":"COSMOS 2251 DEB","OBJECT_ID":"1993-036N","EPOCH":"2026-03-09T20:39:34.848000","MEAN_MOTION":15.17003756,"ECCENTRICITY":0.00564486,"INCLINATION":74.0035,"RA_OF_ASC_NODE":352.1163,"ARG_OF_PERICENTER":60.1769,"MEAN_ANOMALY":300.5022,"EPHEMERIS_TYPE":0,"CLASSIFICATION_TYPE":"U","NORAD_CAT_ID":33765,"ELEMENT_SET_NO":999,"REV_AT_EPOCH":90936,"BSTAR":0.0026022202,"MEAN_MOTION_DOT":0.00053945,"MEAN_MOTION_DDOT":0}]
